[{"OBJECT_NAME":"BRO-10","OBJECT_ID":"2023-174CD","EPOCH":"2026-03-09T23:34:33.500352","MEAN_MOTION":15.73235012,"ECCENTRICITY":0.00030107,"INCLINATION":97.3656,"RA_OF_ASC_NODE":162.3972,"ARG_OF_PERICENTER":146.5418,"MEAN_ANOMALY":213.6037,"EPHEMERIS_TYPE":0,"CLASSIFICATION_TYPE":"U","NORAD_CAT_ID":58331,"ELEMENT_SET_NO":999,"REV_AT_EPOCH":13076,"BSTAR":0.0013973225,"MEAN_MOTION_DOT":0.00196052,"MEAN_MOTION_DDOT":0},{"OBJECT_NAME":"STARLINK-11516 [DTC]","OBJECT_ID":"2025-004M","EPOCH":"2026-03-09T09:31:46.328736","MEAN_MOTION":15.70892931,"ECCENTRICITY":0.00010877,"INCLINATION":43.0014,"RA_OF_ASC_NODE":72.3885,"ARG_OF_PERICENTER":260.7461,"MEAN_ANOMALY":99.3283,"EPHEMERIS_TYPE":0,"CLASSIFICATION_TYPE":"U","NORAD_CAT_ID":62522,"ELEMENT_SET_NO":999,"REV_AT_EPOCH":6716,"BSTAR":0.0015314328,"MEAN_MOTION_DOT":0.00201334,"MEAN_MOTION_DDOT":0}]
